[{"OBJECT_NAME":"STARLINK-4170","OBJECT_ID":"2022-083J","EPOCH":"2026-03-09T14:20:15.090432","MEAN_MOTION":15.08832033,"ECCENTRICITY":0.0001234,"INCLINATION":53.2177,"RA_OF_ASC_NODE":174.5364,"ARG_OF_PERICENTER":95.0222,"MEAN_ANOMALY":265.0911,"EPHEMERIS_TYPE":0,"CLASSIFICATION_TYPE":"U","NORAD_CAT_ID":53140,"ELEMENT_SET_NO":999,"REV_AT_EPOCH":20120,"BSTAR":1.7258e-5,"MEAN_MOTION_DOT":-1.3e-7,"MEAN_MOTION_DDOT":0},{"OBJECT_NAME":"YUNYAO-1 48","OBJECT_ID":"2025-059F","EPOCH":"2026-03-09T22:24:05.789376","MEAN_MOTION":15.10574052,"ECCENTRICITY":0.00165064,"INCLINATION":97.6074,"RA_OF_ASC_NODE":250.9983,"ARG_OF_PERICENTER":137.6901,"MEAN_ANOMALY":222.5605,"EPHEMERIS_TYPE":0,"CLASSIFICATION_TYPE":"U","NORAD_CAT_ID":63349,"ELEMENT_SET_NO":999,"REV_AT_EPOCH":5331,"BSTAR":0.00030523847,"MEAN_MOTION_DOT":4.989e-5,"MEAN_MOTION_DDOT":0}]
